{"type": "FeatureCollection", "features": [ {"type": "Feature", "properties": {"norad_id": 33492, "name": "GOSAT (IBUKI)", "group": "resource", "lat": -77.05703657809254, "lon": -112.49592801851905, "alt_km": 676.9027419487629, "timestamp": "2025-12-23T05:02:11.680286+00:00", "meta": {"OBJECT_NAME": "GOSAT (IBUKI)", "OBJECT_ID": "2009-002A", "EPOCH": "2025-12-22T21:18:38.412576", "MEAN_MOTION": 14.67544123, "ECCENTRICITY": 0.00010033, "INCLINATION": 98.0771, "RA_OF_ASC_NODE": 105.3503, "ARG_OF_PERICENTER": 102.9826, "MEAN_ANOMALY": 257.1491, "EPHEMERIS_TYPE": 0, "CLASSIFICATION_TYPE": "U", "NORAD_CAT_ID": 33492, "ELEMENT_SET_NO": 999, "REV_AT_EPOCH": 90560, "BSTAR": 0.00015422711, "MEAN_MOTION_DOT": 8.27e-06, "MEAN_MOTION_DDOT": 0}, "tle": {"line1": "1 33492U 09002A   25356.88794459  .00000827  00000+0  15423-3 0  9991", "line2": "2 33492  98.0771 105.3503 0001003 102.9826 257.1491 14.67544123905600"}}, "geometry": {"type": "Point", "coordinates": [-112.49592801851905, -77.05703657809254]}}, {"type": "Feature", "properties": {"norad_id": 35681, "name": "DEIMOS-1", "group": "resource", "lat": -74.51526359524227, "lon": -51.970914591487464, "alt_km": 654.325277959435, "timestamp": "2025-12-23T05:02:11.680297+00:00", "meta": {"OBJECT_NAME": "DEIMOS-1", "OBJECT_ID": "2009-041A", "EPOCH": "2025-12-22T22:59:33.720288", "MEAN_MOTION": 14.74967944, "ECCENTRICITY": 0.000256, "INCLINATION": 97.7151, "RA_OF_ASC_NODE": 157.086, "ARG_OF_PERICENTER": 63.691, "MEAN_ANOMALY": 296.4563, "EPHEMERIS_TYPE": 0, "CLASSIFICATION_TYPE": "U", "NORAD_CAT_ID": 35681, "ELEMENT_SET_NO": 999, "REV_AT_EPOCH": 88090, "BSTAR": 0.00014227281, "MEAN_MOTION_DOT": 9.09e-06, "MEAN_MOTION_DDOT": 0}, "tle": {"line1": "1 35681U 09041A   25356.95802917  .00000909  00000+0  14227-3 0  9995", "line2": "2 35681  97.7151 157.0860 0002560  63.6910 296.4563 14.74967944880905"}}, "geometry": {"type": "Point", "coordinates": [-51.970914591487464, -74.51526359524227]}}, {"type": "Feature", "properties": {"norad_id": 35682, "name": "DUBAISAT-1", "group": "resource", "lat": 1.2442874376179476, "lon": -52.08962861214148, "alt_km": 650.1159366034599, "timestamp": "2025-12-23T05:02:11.680307+00:00", "meta": {"OBJECT_NAME": "DUBAISAT-1", "OBJECT_ID": "2009-041B", "EPOCH": "2025-12-22T20:05:08.128896", "MEAN_MOTION": 14.74629962, "ECCENTRICITY": 0.00092606, "INCLINATION": 97.9798, "RA_OF_ASC_NODE": 127.3684, "ARG_OF_PERICENTER": 278.2214, "MEAN_ANOMALY": 81.7944, "EPHEMERIS_TYPE": 0, "CLASSIFICATION_TYPE": "U", "NORAD_CAT_ID": 35682, "ELEMENT_SET_NO": 999, "REV_AT_EPOCH": 87910, "BSTAR": 0.00017439106, "MEAN_MOTION_DOT": 1.113e-05, "MEAN_MOTION_DDOT": 0}, "tle": {"line1": "1 35682U 09041B   25356.83689964  .00001113  00000+0  17439-3 0  9994", "line2": "2 35682  97.9798 127.3684 0009260 278.2214  81.7944 14.74629962879107"}}, "geometry": {"type": "Point", "coordinates": [-52.08962861214148, 1.2442874376179476]}}, {"type": "Feature", "properties": {"norad_id": 35931, "name": "OCEANSAT-2", "group": "resource", "lat": 52.828136681182606, "lon": -14.24388263797987, "alt_km": 880.7460463575499, "timestamp": "2025-12-23T05:02:11.680318+00:00", "meta": {"OBJECT_NAME": "OCEANSAT-2", "OBJECT_ID": "2009-051A", "EPOCH": "2025-12-22T23:38:05.773056", "MEAN_MOTION": 13.99622932, "ECCENTRICITY": 0.00159544, "INCLINATION": 98.2217, "RA_OF_ASC_NODE": 356.5458, "ARG_OF_PERICENTER": 18.1567, "MEAN_ANOMALY": 342.0167, "EPHEMERIS_TYPE": 0, "CLASSIFICATION_TYPE": "U", "NORAD_CAT_ID": 35931, "ELEMENT_SET_NO": 999, "REV_AT_EPOCH": 85468, "BSTAR": -2.3224169e-05, "MEAN_MOTION_DOT": -7.1e-07, "MEAN_MOTION_DDOT": 0}, "tle": {"line1": "1 35931U 09051A   25356.98478904 -.00000071  00000+0 -23224-4 0  9992", "line2": "2 35931  98.2217 356.5458 0015954  18.1567 342.0167 13.99622932854680"}}, "geometry": {"type": "Point", "coordinates": [-14.24388263797987, 52.828136681182606]}}, {"type": "Feature", "properties": {"norad_id": 35946, "name": "WORLDVIEW-2 (WV-2)", "group": "resource", "lat": 10.390176159569291, "lon": -110.28227883855186, "alt_km": 769.4606088428582, "timestamp": "2025-12-23T05:02:11.680329+00:00", "meta": {"OBJECT_NAME": "WORLDVIEW-2 (WV-2)", "OBJECT_ID": "2009-055A", "EPOCH": "2025-12-22T21:34:14.215296", "MEAN_MOTION": 14.37728388, "ECCENTRICITY": 0.00048176, "INCLINATION": 98.4775, "RA_OF_ASC_NODE": 67.8439, "ARG_OF_PERICENTER": 45.7646, "MEAN_ANOMALY": 314.3936, "EPHEMERIS_TYPE": 0, "CLASSIFICATION_TYPE": "U", "NORAD_CAT_ID": 35946, "ELEMENT_SET_NO": 999, "REV_AT_EPOCH": 85031, "BSTAR": 7.4063131e-05, "MEAN_MOTION_DOT": 1.79e-06, "MEAN_MOTION_DDOT": 0}, "tle": {"line1": "1 35946U 09055A   25356.89877564  .00000179  00000+0  74063-4 0  9991", "line2": "2 35946  98.4775  67.8439 0004817  45.7646 314.3936 14.37728388850315"}}, "geometry": {"type": "Point", "coordinates": [-110.28227883855186, 10.390176159569291]}}, {"type": "Feature", "properties": {"norad_id": 36036, "name": "SMOS", "group": "resource", "lat": -76.35194252850891, "lon": -140.21009235738418, "alt_km": 767.3565229619226, "timestamp": "2025-12-23T05:02:11.680339+00:00", "meta": {"OBJECT_NAME": "SMOS", "OBJECT_ID": "2009-059A", "EPOCH": "2025-12-22T19:23:47.927904", "MEAN_MOTION": 14.39749777, "ECCENTRICITY": 0.00010604, "INCLINATION": 98.4381, "RA_OF_ASC_NODE": 181.7075, "ARG_OF_PERICENTER": 83.478, "MEAN_ANOMALY": 276.6529, "EPHEMERIS_TYPE": 0, "CLASSIFICATION_TYPE": "U", "NORAD_CAT_ID": 36036, "ELEMENT_SET_NO": 999, "REV_AT_EPOCH": 84807, "BSTAR": 0.00012283396, "MEAN_MOTION_DOT": 3.41e-06, "MEAN_MOTION_DDOT": 0}, "tle": {"line1": "1 36036U 09059A   25356.80819361  .00000341  00000+0  12283-3 0  9994", "line2": "2 36036  98.4381 181.7075 0001060  83.4780 276.6529 14.39749777848071"}}, "geometry": {"type": "Point", "coordinates": [-140.21009235738418, -76.35194252850891]}}, {"type": "Feature", "properties": {"norad_id": 36110, "name": "YAOGAN-7", "group": "resource", "lat": 80.34475563274026, "lon": 114.99959852496939, "alt_km": 643.2936575810772, "timestamp": "2025-12-23T05:02:11.680349+00:00", "meta": {"OBJECT_NAME": "YAOGAN-7", "OBJECT_ID": "2009-069A", "EPOCH": "2025-12-22T15:36:15.487200", "MEAN_MOTION": 14.77746064, "ECCENTRICITY": 0.00234069, "INCLINATION": 98.0295, "RA_OF_ASC_NODE": 238.3715, "ARG_OF_PERICENTER": 247.4675, "MEAN_ANOMALY": 112.4058, "EPHEMERIS_TYPE": 0, "CLASSIFICATION_TYPE": "U", "NORAD_CAT_ID": 36110, "ELEMENT_SET_NO": 999, "REV_AT_EPOCH": 86355, "BSTAR": 8.4897324e-05, "MEAN_MOTION_DOT": 5.58e-06, "MEAN_MOTION_DDOT": 0}, "tle": {"line1": "1 36110U 09069A   25356.65017925  .00000558  00000+0  84897-4 0  9998", "line2": "2 36110  98.0295 238.3715 0023406 247.4675 112.4058 14.77746064863559"}}, "geometry": {"type": "Point", "coordinates": [114.99959852496939, 80.34475563274026]}}, {"type": "Feature", "properties": {"norad_id": 36605, "name": "TANDEM-X", "group": "resource", "lat": 78.06187286408802, "lon": -139.3604576514548, "alt_km": 499.94989801960946, "timestamp": "2025-12-23T05:02:11.680359+00:00", "meta": {"OBJECT_NAME": "TANDEM-X", "OBJECT_ID": "2010-030A", "EPOCH": "2025-12-22T14:22:24.829536", "MEAN_MOTION": 15.19158129, "ECCENTRICITY": 0.0001799, "INCLINATION": 97.4444, "RA_OF_ASC_NODE": 1.8349, "ARG_OF_PERICENTER": 78.6886, "MEAN_ANOMALY": 281.4551, "EPHEMERIS_TYPE": 0, "CLASSIFICATION_TYPE": "U", "NORAD_CAT_ID": 36605, "ELEMENT_SET_NO": 999, "REV_AT_EPOCH": 85983, "BSTAR": 3.9682032e-05, "MEAN_MOTION_DOT": 7.67e-06, "MEAN_MOTION_DDOT": 0}, "tle": {"line1": "1 36605U 10030A   25356.59889849  .00000767  00000+0  39682-4 0  9996", "line2": "2 36605  97.4444   1.8349 0001799  78.6886 281.4551 15.19158129859839"}}, "geometry": {"type": "Point", "coordinates": [-139.3604576514548, 78.06187286408802]}}, {"type": "Feature", "properties": {"norad_id": 36795, "name": "CARTOSAT-2B", "group": "resource", "lat": 59.11048858190297, "lon": 32.68178296511566, "alt_km": 618.9652376847735, "timestamp": "2025-12-23T05:02:11.680370+00:00", "meta": {"OBJECT_NAME": "CARTOSAT-2B", "OBJECT_ID": "2010-035A", "EPOCH": "2025-12-22T23:53:41.268192", "MEAN_MOTION": 14.78738523, "ECCENTRICITY": 0.00127158, "INCLINATION": 97.7838, "RA_OF_ASC_NODE": 45.6921, "ARG_OF_PERICENTER": 46.3436, "MEAN_ANOMALY": 313.8828, "EPHEMERIS_TYPE": 0, "CLASSIFICATION_TYPE": "U", "NORAD_CAT_ID": 36795, "ELEMENT_SET_NO": 999, "REV_AT_EPOCH": 83381, "BSTAR": 7.3356735e-05, "MEAN_MOTION_DOT": 4.89e-06, "MEAN_MOTION_DDOT": 0}, "tle": {"line1": "1 36795U 10035A   25356.99561653  .00000489  00000+0  73357-4 0  9993", "line2": "2 36795  97.7838  45.6921 0012715  46.3436 313.8828 14.78738523833817"}}, "geometry": {"type": "Point", "coordinates": [32.68178296511566, 59.11048858190297]}}, {"type": "Feature", "properties": {"norad_id": 36834, "name": "YAOGAN-10", "group": "resource", "lat": 2.0302776832032374, "lon": 16.668926563174807, "alt_km": 617.2699824372148, "timestamp": "2025-12-23T05:02:11.680380+00:00", "meta": {"OBJECT_NAME": "YAOGAN-10", "OBJECT_ID": "2010-038A", "EPOCH": "2025-12-23T00:18:37.980576", "MEAN_MOTION": 14.84641808, "ECCENTRICITY": 0.00013097, "INCLINATION": 97.9128, "RA_OF_ASC_NODE": 16.756, "ARG_OF_PERICENTER": 80.4046, "MEAN_ANOMALY": 309.9552, "EPHEMERIS_TYPE": 0, "CLASSIFICATION_TYPE": "U", "NORAD_CAT_ID": 36834, "ELEMENT_SET_NO": 999, "REV_AT_EPOCH": 83106, "BSTAR": 0.00018197486, "MEAN_MOTION_DOT": 1.485e-05, "MEAN_MOTION_DDOT": 0}, "tle": {"line1": "1 36834U 10038A   25357.01293959  .00001485  00000+0  18197-3 0  9992", "line2": "2 36834  97.9128  16.7560 0001309  80.4046 309.9552 14.84641808831067"}}, "geometry": {"type": "Point", "coordinates": [16.668926563174807, 2.0302776832032374]}}]}